{
  "links" : {
    "next" : "https://api.nasa.gov/neo/rest/v1/feed?start_date=2016-04-09&end_date=2016-04-09&detailed=true&api_key=t0TVs3DtDT2H8Oy2Zy8m2eVrNsAVKAexjcZXUckd",
    "prev" : "https://api.nasa.gov/neo/rest/v1/feed?start_date=2016-04-07&end_date=2016-04-07&detailed=true&api_key=t0TVs3DtDT2H8Oy2Zy8m2eVrNsAVKAexjcZXUckd",
    "self" : "https://api.nasa.gov/neo/rest/v1/feed?start_date=2016-04-08&end_date=2016-04-08&detailed=true&api_key=t0TVs3DtDT2H8Oy2Zy8m2eVrNsAVKAexjcZXUckd"
  },
  "element_count" : 8,
  "near_earth_objects" : {
    "2016-04-08" : [ {
      "links" : {
        "self" : "https://api.nasa.gov/neo/rest/v1/neo/3748554?api_key=t0TVs3DtDT2H8Oy2Zy8m2eVrNsAVKAexjcZXUckd"
      },
      "neo_reference_id" : "3748554",
      "name" : "(2016 GY)",
      "nasa_jpl_url" : "http://ssd.jpl.nasa.gov/sbdb.cgi?sstr=3748554",
      "absolute_magnitude_h" : 26.4,
      "estimated_diameter" : {
        "kilometers" : {
          "estimated_diameter_min" : 0.0139493823,
          "estimated_diameter_max" : 0.0311917671
        },
        "meters" : {
          "estimated_diameter_min" : 13.9493822934,
          "estimated_diameter_max" : 31.1917670523
        },
        "miles" : {
          "estimated_diameter_min" : 0.0086677416,
          "estimated_diameter_max" : 0.0193816595
        },
        "feet" : {
          "estimated_diameter_min" : 45.7656914036,
          "estimated_diameter_max" : 102.3351970157
        }
      },
      "is_potentially_hazardous_asteroid" : false,
      "close_approach_data" : [ {
        "close_approach_date" : "2016-04-08",
        "epoch_date_close_approach" : 1460098800000,
        "relative_velocity" : {
          "kilometers_per_second" : "4.68761253",
          "kilometers_per_hour" : "16875.4051078393",
          "miles_per_hour" : "10485.7204682572"
        },
        "miss_distance" : {
          "astronomical" : "0.0697807225",
          "lunar" : "27.144701004",
          "kilometers" : "10439048",
          "miles" : "6486523.5"
        },
        "orbiting_body" : "Earth"
      } ],
      "orbital_data" : {
        "orbit_id" : "7",
        "orbit_determination_date" : "2017-04-06 08:26:55",
        "orbit_uncertainty" : "7",
        "minimum_orbit_intersection" : ".0700206",
        "jupiter_tisserand_invariant" : "4.211",
        "epoch_osculation" : "2458000.5",
        "eccentricity" : ".3502521705287013",
        "semi_major_axis" : "1.645795486111318",
        "inclination" : "4.781811758823398",
        "ascending_node_longitude" : "191.5731401053721",
        "orbital_period" : "771.1914875534718",
        "perihelion_distance" : "1.06935204485449",
        "perihelion_argument" : "10.26347936760663",
        "aphelion_distance" : "2.222238927368147",
        "perihelion_time" : "2458260.473326210498",
        "mean_anomaly" : "238.6418173096212",
        "mean_motion" : ".4668101318675912",
        "equinox" : "J2000"
      }
    }, {
      "links" : {
        "self" : "https://api.nasa.gov/neo/rest/v1/neo/3749026?api_key=t0TVs3DtDT2H8Oy2Zy8m2eVrNsAVKAexjcZXUckd"
      },
      "neo_reference_id" : "3749026",
      "name" : "(2016 GF2)",
      "nasa_jpl_url" : "http://ssd.jpl.nasa.gov/sbdb.cgi?sstr=3749026",
      "absolute_magnitude_h" : 26.7,
      "estimated_diameter" : {
        "kilometers" : {
          "estimated_diameter_min" : 0.0121494041,
          "estimated_diameter_max" : 0.0271668934
        },
        "meters" : {
          "estimated_diameter_min" : 12.14940408,
          "estimated_diameter_max" : 27.1668934089
        },
        "miles" : {
          "estimated_diameter_min" : 0.0075492874,
          "estimated_diameter_max" : 0.0168807197
        },
        "feet" : {
          "estimated_diameter_min" : 39.8602508817,
          "estimated_diameter_max" : 89.1302305717
        }
      },
      "is_potentially_hazardous_asteroid" : false,
      "close_approach_data" : [ {
        "close_approach_date" : "2016-04-08",
        "epoch_date_close_approach" : 1460098800000,
        "relative_velocity" : {
          "kilometers_per_second" : "13.0307986957",
          "kilometers_per_hour" : "46910.8753044199",
          "miles_per_hour" : "29148.5936023491"
        },
        "miss_distance" : {
          "astronomical" : "0.011853093",
          "lunar" : "4.6108531952",
          "kilometers" : "1773197.5",
          "miles" : "1101813.875"
        },
        "orbiting_body" : "Earth"
      } ],
      "orbital_data" : {
        "orbit_id" : "6",
        "orbit_determination_date" : "2017-04-06 08:26:51",
        "orbit_uncertainty" : "8",
        "minimum_orbit_intersection" : ".0105285",
        "jupiter_tisserand_invariant" : "3.433",
        "epoch_osculation" : "2457481.5",
        "eccentricity" : ".5891020967396918",
        "semi_major_axis" : "2.168628726635836",
        "inclination" : "7.854572630177434",
        "ascending_node_longitude" : "193.8519664402731",
        "orbital_period" : "1166.477151372733",
        "perihelion_distance" : ".8910849967247371",
        "perihelion_argument" : "50.15392463202792",
        "aphelion_distance" : "3.446172456546935",
        "perihelion_time" : "2457520.245679373325",
        "mean_anomaly" : "348.0422479274607",
        "mean_motion" : ".308621561576534",
        "equinox" : "J2000"
      }
    }, {
      "links" : {
        "self" : "https://api.nasa.gov/neo/rest/v1/neo/3749068?api_key=t0TVs3DtDT2H8Oy2Zy8m2eVrNsAVKAexjcZXUckd"
      },
      "neo_reference_id" : "3749068",
      "name" : "(2016 GV2)",
      "nasa_jpl_url" : "http://ssd.jpl.nasa.gov/sbdb.cgi?sstr=3749068",
      "absolute_magnitude_h" : 24.2,
      "estimated_diameter" : {
        "kilometers" : {
          "estimated_diameter_min" : 0.0384197891,
          "estimated_diameter_max" : 0.0859092601
        },
        "meters" : {
          "estimated_diameter_min" : 38.4197891064,
          "estimated_diameter_max" : 85.9092601232
        },
        "miles" : {
          "estimated_diameter_min" : 0.0238729428,
          "estimated_diameter_max" : 0.0533815229
        },
        "feet" : {
          "estimated_diameter_min" : 126.0491808919,
          "estimated_diameter_max" : 281.8545369825
        }
      },
      "is_potentially_hazardous_asteroid" : false,
      "close_approach_data" : [ {
        "close_approach_date" : "2016-04-08",
        "epoch_date_close_approach" : 1460098800000,
        "relative_velocity" : {
          "kilometers_per_second" : "9.4864558009",
          "kilometers_per_hour" : "34151.2408832405",
          "miles_per_hour" : "21220.2529810335"
        },
        "miss_distance" : {
          "astronomical" : "0.1031889811",
          "lunar" : "40.1405143738",
          "kilometers" : "15436852",
          "miles" : "9592015"
        },
        "orbiting_body" : "Earth"
      } ],
      "orbital_data" : {
        "orbit_id" : "4",
        "orbit_determination_date" : "2017-04-06 08:26:48",
        "orbit_uncertainty" : "8",
        "minimum_orbit_intersection" : ".0960026",
        "jupiter_tisserand_invariant" : "3.104",
        "epoch_osculation" : "2457482.5",
        "eccentricity" : ".5950271612217545",
        "semi_major_axis" : "2.617858738926545",
        "inclination" : "11.8127645392426",
        "ascending_node_longitude" : ".2764356861327593",
        "orbital_period" : "1547.097694698328",
        "perihelion_distance" : "1.060161685023521",
        "perihelion_argument" : "212.5899681240032",
        "aphelion_distance" : "4.17555579282957",
        "perihelion_time" : "2457500.945977385869",
        "mean_anomaly" : "355.707735922774",
        "mean_motion" : ".2326937731428765",
        "equinox" : "J2000"
      }
    } ]
  }
}